TEVEL2-6                
1 63215U 25052F   26068.64958975  .00021046  00000+0  70909-3 0  9996
2 63215  97.4016 325.0381 0004769  95.6604 264.5181 15.30760889 54861
STARLINK-35830          
1 66284U 25247V   26068.56624916  .00017388  00000+0  59804-3 0  9992
2 66284  53.1572 192.0895 0001010  83.5422 276.5694 15.30187075 21011
